ORBCOMM FM37            
1 33064U 08031E   25075.08753288  .00004593  00000+0  63993-3 0  9991
2 33064  48.4388  66.0881 0006274 330.8812 109.9601 14.79194466900260
ORBCOMM FM40            
1 33065U 08031F   25075.41851396  .00006142  00000+0  80510-3 0  9994
2 33065  48.4414  50.0589 0007419 344.9518 155.7904 14.81288583900408
VESSELSAT 1             
1 37840U 11058C   25074.98558782  .00000513  00000+0  13526-3 0  9995
2 37840  19.9625 297.8452 0013582 241.2346 118.6694 14.11322156693126
ORBCOMM FM109           
1 40086U 14040A   25075.40447019  .00001763  00000+0  41731-3 0  9990
2 40086  47.0027  94.4255 0002841 278.1092  81.9471 14.57915210567523
ORBCOMM FM107           
1 40087U 14040B   25075.36862223  .00001816  00000+0  42825-3 0  9998
2 40087  47.0032  95.5905 0002001 247.7355 112.3319 14.57975518567590
ORBCOMM FM106           
1 40088U 14040C   25075.54844288  .00002940  00000+0  52621-3 0  9994
2 40088  47.0592 284.2357 0016817 355.0970   4.9753 14.69061663569855
ORBCOMM FM111           
1 40089U 14040D   25075.56933990  .00005283  00000+0  62481-3 0  9994
2 40089  47.0005 146.6824 0029048 109.6927 250.7107 14.85496818576450
ORBCOMM FM104           
1 40090U 14040E   25075.46170084  .00001564  00000+0  38633-3 0  9992
2 40090  47.0042 127.6526 0015806 144.4721 215.7219 14.56416226567107
